IRIDIUM 921 [-]         
1 24873U 97034E   23348.61378629  .00011767  00000+0  41854-3 0  9995
2 24873  86.3858  19.1221 0003088 201.7057 158.4060 15.28849412447026
IRIDIUM 26 [-]          
1 24903U 97043A   23348.93745960  .00000394  00000+0  12869-3 0  9998
2 24903  86.3953 341.4961 0002429  92.9382 267.2092 14.36115652377742
IRIDIUM 22 [-]          
1 24907U 97043E   23348.92032920  .00000346  00000+0  11458-3 0  9996
2 24907  86.3958 344.5926 0002174  91.2297 268.9149 14.35019474377835
DUMMY MASS 1 [-]        
1 24925U 97048A   23348.61790301  .00000374  00000+0  39615-4 0  9998
2 24925  86.3353  29.7022 0004827 310.1885  49.8916 14.85961689423341
DUMMY MASS 2 [-]        
1 24926U 97048B   23348.62449746  .00000370  00000+0  39399-4 0  9999
2 24926  86.3352  31.2092 0005953 322.5199  37.5610 14.85722508423139
IRIDIUM 29 [-]          
1 24944U 97051A   23348.63330788  .00000385  00000+0  12723-3 0  9996
2 24944  86.3963  14.6681 0001946  94.1022 266.0397 14.35477107374268
IRIDIUM 33 [-]          
1 24946U 97051C   23348.56020170  .00000247  00000+0  81018-4 0  9992
2 24946  86.3878  13.9673 0010023  78.9033 281.3289 14.34198600373802
IRIDIUM 28 [-]          
1 24948U 97051E   23348.55052247  .00000353  00000+0  11391-3 0  9997
2 24948  86.3969  12.5356 0002632  92.1432 268.0066 14.36418958374771
